{"type":"FeatureCollection","features":[{"type":"Feature","geometry":{"type":"Polygon","coordinates":[[[-43.352365,-22.838844],[-43.352579,-22.838886],[-43.352986,-22.83899],[-43.353714,-22.839127],[-43.354336,-22.839253],[-43.354711,-22.839336],[-43.355267,-22.839561],[-43.355387,-22.839383],[-43.355464,-22.839205],[-43.356841,-22.838164],[-43.357101,-22.837967],[-43.357805,-22.837477],[-43.358379,-22.837075],[-43.358791,-22.83677],[-43.359105,-22.836534],[-43.359344,-22.836348],[-43.359528,-22.83622],[-43.359734,-22.836073],[-43.35982,-22.836054],[-43.3602,-22.835868],[-43.360276,-22.836162],[-43.360332,-22.836435],[-43.360325,-22.836715],[-43.36026,-22.837042],[-43.360148,-22.837495],[-43.359739,-22.838512],[-43.359613,-22.838811],[-43.359366,-22.839672],[-43.358989,-22.840532],[-43.358518,-22.841691],[-43.358329,-22.842393],[-43.35801,-22.842984],[-43.357977,-22.843458],[-43.357993,-22.84388],[-43.358107,-22.844262],[-43.358422,-22.844676],[-43.358701,-22.844995],[-43.35906,-22.845327],[-43.359333,-22.845554],[-43.359719,-22.845978],[-43.359866,-22.846194],[-43.359963,-22.846342],[-43.3604,-22.846782],[-43.358685,-22.848268],[-43.358327,-22.848583],[-43.358121,-22.84874],[-43.357926,-22.848917],[-43.357644,-22.849143],[-43.357697,-22.849184],[-43.357835,-22.849285],[-43.357953,-22.849356],[-43.358103,-22.849317],[-43.35835,-22.84937],[-43.358532,-22.849382],[-43.358833,-22.849425],[-43.358972,-22.849466],[-43.359111,-22.849487],[-43.359559,-22.8498],[-43.360304,-22.850316],[-43.360537,-22.850597],[-43.361179,-22.851749],[-43.361915,-22.85305],[-43.362704,-22.854492],[-43.362945,-22.854933],[-43.362846,-22.8552],[-43.361854,-22.855365],[-43.361661,-22.855397],[-43.359906,-22.855738],[-43.358776,-22.855935],[-43.357463,-22.856151],[-43.355998,-22.856376],[-43.354968,-22.854871],[-43.354832,-22.854742],[-43.354715,-22.854664],[-43.354361,-22.854429],[-43.354132,-22.854268],[-43.35401,-22.854187],[-43.353873,-22.854131],[-43.353743,-22.854097],[-43.353591,-22.854068],[-43.353273,-22.854045],[-43.352918,-22.854028],[-43.352687,-22.853992],[-43.352579,-22.853917],[-43.352391,-22.853757],[-43.352659,-22.853477],[-43.353206,-22.85296],[-43.353616,-22.852599],[-43.354115,-22.852168],[-43.354703,-22.851662],[-43.356033,-22.8505],[-43.352787,-22.849257],[-43.352953,-22.8486],[-43.35216,-22.845677],[-43.352109,-22.845465],[-43.351778,-22.844176],[-43.352115,-22.841113],[-43.352365,-22.838844]]]},"properties":{"nome":"Honório Gurgel","codbairro":"087","regiao_adm":"MADUREIRA               "}},{"type":"Feature","geometry":{"type":"Polygon","coordinates":[[[-43.356486,-22.879401],[-43.356668,-22.879231],[-43.356544,-22.881109],[-43.35649,-22.882405],[-43.356472,-22.882806],[-43.356536,-22.883302],[-43.356351,-22.883394],[-43.344398,-22.889765],[-43.339765,-22.889855],[-43.339782,-22.885956],[-43.339914,-22.885072],[-43.340143,-22.884796],[-43.340949,-22.884279],[-43.341536,-22.883724],[-43.342,-22.882933],[-43.342553,-22.883044],[-43.342896,-22.883077],[-43.344505,-22.883094],[-43.34488,-22.883075],[-43.345963,-22.882933],[-43.346562,-22.88288],[-43.347287,-22.882823],[-43.348007,-22.882759],[-43.348383,-22.882722],[-43.348778,-22.88262],[-43.349789,-22.882213],[-43.350792,-22.881792],[-43.351571,-22.881488],[-43.353104,-22.881021],[-43.353672,-22.880844],[-43.354087,-22.88066],[-43.354292,-22.880573],[-43.354894,-22.880273],[-43.355143,-22.880158],[-43.35577,-22.879834],[-43.355918,-22.879724],[-43.356399,-22.879399],[-43.356486,-22.879401]]]},"properties":{"nome":"Campinho","codbairro":"078","regiao_adm":"MADUREIRA               "}},{"type":"Feature","geometry":{"type":"Polygon","coordinates":[[[-43.350585,-22.859825],[-43.351075,-22.859621],[-43.351382,-22.859471],[-43.351548,-22.85938],[-43.352298,-22.860914],[-43.353157,-22.862706],[-43.353446,-22.86332],[-43.353193,-22.863406],[-43.353051,-22.863494],[-43.352931,-22.863657],[-43.352735,-22.863943],[-43.35229,-22.864625],[-43.35248,-22.864874],[-43.352663,-22.865047],[-43.352744,-22.865055],[-43.352937,-22.865015],[-43.352846,-22.865165],[-43.353165,-22.865128],[-43.353878,-22.864943],[-43.354093,-22.864911],[-43.354125,-22.866509],[-43.354129,-22.866832],[-43.352779,-22.867641],[-43.352895,-22.867855],[-43.353272,-22.8679],[-43.354425,-22.868035],[-43.355051,-22.868878],[-43.355614,-22.869522],[-43.356389,-22.870305],[-43.356644,-22.870644],[-43.357073,-22.87121],[-43.357242,-22.871377],[-43.357478,-22.872051],[-43.357466,-22.872449],[-43.357419,-22.873299],[-43.357375,-22.873841],[-43.357241,-22.874484],[-43.3571,-22.875182],[-43.357083,-22.87536],[-43.356981,-22.875867],[-43.356949,-22.875997],[-43.356839,-22.876524],[-43.356808,-22.876667],[-43.356751,-22.877126],[-43.356719,-22.877325],[-43.35656,-22.878791],[-43.356544,-22.878921],[-43.356521,-22.879024],[-43.356486,-22.879401],[-43.356399,-22.879399],[-43.355918,-22.879724],[-43.35577,-22.879834],[-43.355143,-22.880158],[-43.354894,-22.880273],[-43.354292,-22.880573],[-43.354087,-22.88066],[-43.353672,-22.880844],[-43.353104,-22.881021],[-43.351571,-22.881488],[-43.350792,-22.881792],[-43.349789,-22.882213],[-43.349788,-22.88221],[-43.349684,-22.881935],[-43.348362,-22.878735],[-43.34714,-22.875495],[-43.346806,-22.874617],[-43.346622,-22.874052],[-43.346507,-22.873874],[-43.346283,-22.873637],[-43.345063,-22.872506],[-43.344568,-22.872173],[-43.343877,-22.871552],[-43.342406,-22.870209],[-43.342544,-22.869975],[-43.342798,-22.869246],[-43.342994,-22.868769],[-43.343135,-22.868893],[-43.343313,-22.868483],[-43.343431,-22.868255],[-43.343672,-22.86809],[-43.346201,-22.866765],[-43.346433,-22.866637],[-43.346644,-22.866219],[-43.346865,-22.865718],[-43.34696,-22.865329],[-43.347053,-22.86514],[-43.347169,-22.865026],[-43.347269,-22.864982],[-43.347862,-22.865011],[-43.347806,-22.864842],[-43.347353,-22.863448],[-43.347479,-22.863266],[-43.347554,-22.86319],[-43.347695,-22.863116],[-43.348115,-22.86312],[-43.348264,-22.863053],[-43.348332,-22.862931],[-43.348423,-22.862856],[-43.34855,-22.862628],[-43.348971,-22.861167],[-43.349077,-22.860611],[-43.34912,-22.860458],[-43.349179,-22.860314],[-43.349246,-22.860246],[-43.349337,-22.860201],[-43.350288,-22.859883],[-43.350585,-22.859825]]]},"properties":{"nome":"Osvaldo Cruz","codbairro":"088","regiao_adm":"MADUREIRA               "}},{"type":"Feature","geometry":{"type":"Polygon","coordinates":[[[-43.3243,-22.864641],[-43.327034,-22.863273],[-43.327273,-22.863032],[-43.330016,-22.861228],[-43.331159,-22.860425],[-43.331836,-22.859987],[-43.334149,-22.859104],[-43.335722,-22.861187],[-43.336278,-22.861689],[-43.337738,-22.86315],[-43.337899,-22.863362],[-43.338186,-22.863642],[-43.33876,-22.864195],[-43.339477,-22.864866],[-43.339584,-22.865052],[-43.338446,-22.865393],[-43.339095,-22.866493],[-43.339183,-22.86667],[-43.339754,-22.865979],[-43.340294,-22.866346],[-43.340995,-22.866866],[-43.341337,-22.867096],[-43.341272,-22.867154],[-43.341657,-22.867595],[-43.3419,-22.867783],[-43.342169,-22.868021],[-43.342994,-22.868769],[-43.342798,-22.869246],[-43.342544,-22.869975],[-43.342406,-22.870209],[-43.343877,-22.871552],[-43.344568,-22.872173],[-43.345063,-22.872506],[-43.346283,-22.873637],[-43.346507,-22.873874],[-43.346622,-22.874052],[-43.346806,-22.874617],[-43.34714,-22.875495],[-43.348362,-22.878735],[-43.349684,-22.881935],[-43.349788,-22.88221],[-43.349789,-22.882213],[-43.348778,-22.88262],[-43.348383,-22.882722],[-43.348007,-22.882759],[-43.347287,-22.882823],[-43.346562,-22.88288],[-43.345963,-22.882933],[-43.34488,-22.883075],[-43.344505,-22.883094],[-43.342896,-22.883077],[-43.342553,-22.883044],[-43.342,-22.882933],[-43.342083,-22.882792],[-43.339752,-22.882587],[-43.337762,-22.882368],[-43.337442,-22.882329],[-43.336382,-22.882318],[-43.335556,-22.882291],[-43.335099,-22.882296],[-43.334958,-22.880321],[-43.335104,-22.880323],[-43.335071,-22.879854],[-43.333962,-22.87987],[-43.333792,-22.879863],[-43.333248,-22.879813],[-43.332981,-22.879823],[-43.332154,-22.879842],[-43.330882,-22.880576],[-43.330917,-22.879288],[-43.330921,-22.878982],[-43.330143,-22.878956],[-43.32922,-22.878901],[-43.329282,-22.877785],[-43.329125,-22.877784],[-43.329125,-22.87778],[-43.329223,-22.875649],[-43.329237,-22.875505],[-43.329205,-22.875183],[-43.329219,-22.875007],[-43.329461,-22.875021],[-43.329836,-22.875015],[-43.33042,-22.875006],[-43.331402,-22.874999],[-43.331537,-22.873782],[-43.331583,-22.872962],[-43.329814,-22.871784],[-43.329373,-22.871535],[-43.328783,-22.871425],[-43.328032,-22.871216],[-43.327431,-22.871154],[-43.327108,-22.870972],[-43.325659,-22.870753],[-43.324937,-22.868556],[-43.324968,-22.868218],[-43.325199,-22.866995],[-43.325163,-22.865531],[-43.3243,-22.864641]]]},"properties":{"nome":"Madureira","codbairro":"083","regiao_adm":"MADUREIRA               "}},{"type":"Feature","geometry":{"type":"Polygon","coordinates":[[[-43.361661,-22.855397],[-43.361854,-22.855365],[-43.362284,-22.856089],[-43.363101,-22.857568],[-43.36424,-22.859547],[-43.364956,-22.860851],[-43.366066,-22.862888],[-43.365982,-22.862926],[-43.366267,-22.863568],[-43.366321,-22.863704],[-43.366236,-22.863793],[-43.366262,-22.863916],[-43.366358,-22.864072],[-43.366399,-22.864124],[-43.366504,-22.864105],[-43.367456,-22.863638],[-43.367624,-22.863601],[-43.367629,-22.863717],[-43.367377,-22.863824],[-43.366831,-22.864115],[-43.366781,-22.864244],[-43.366599,-22.864887],[-43.366278,-22.866077],[-43.366039,-22.866888],[-43.368343,-22.868105],[-43.370017,-22.868973],[-43.370092,-22.869103],[-43.370084,-22.869226],[-43.37002,-22.869335],[-43.369914,-22.869424],[-43.368854,-22.869555],[-43.369518,-22.870504],[-43.369771,-22.870951],[-43.368916,-22.873175],[-43.368456,-22.874376],[-43.368032,-22.875469],[-43.367989,-22.875578],[-43.367838,-22.875983],[-43.367807,-22.876136],[-43.367889,-22.877007],[-43.367934,-22.87721],[-43.367516,-22.877238],[-43.367321,-22.877242],[-43.367161,-22.877266],[-43.367015,-22.877284],[-43.366763,-22.87732],[-43.366498,-22.877369],[-43.366198,-22.877424],[-43.365933,-22.877473],[-43.365738,-22.877509],[-43.365368,-22.877557],[-43.365194,-22.877581],[-43.364999,-22.877599],[-43.364741,-22.877628],[-43.364281,-22.877669],[-43.363696,-22.877701],[-43.3632,-22.877767],[-43.362824,-22.877847],[-43.362105,-22.877982],[-43.361373,-22.878065],[-43.361164,-22.878088],[-43.360565,-22.878127],[-43.360237,-22.878182],[-43.359294,-22.878372],[-43.359036,-22.878428],[-43.358205,-22.878683],[-43.357729,-22.878846],[-43.356779,-22.879165],[-43.356668,-22.879231],[-43.356486,-22.879401],[-43.356521,-22.879024],[-43.356544,-22.878921],[-43.35656,-22.878791],[-43.356719,-22.877325],[-43.356751,-22.877126],[-43.356808,-22.876667],[-43.356839,-22.876524],[-43.356949,-22.875997],[-43.356981,-22.875867],[-43.357083,-22.87536],[-43.3571,-22.875182],[-43.357241,-22.874484],[-43.357375,-22.873841],[-43.357419,-22.873299],[-43.357466,-22.872449],[-43.357478,-22.872051],[-43.357242,-22.871377],[-43.357073,-22.87121],[-43.356644,-22.870644],[-43.356389,-22.870305],[-43.355614,-22.869522],[-43.355051,-22.868878],[-43.354425,-22.868035],[-43.353272,-22.8679],[-43.352895,-22.867855],[-43.352779,-22.867641],[-43.354129,-22.866832],[-43.354125,-22.866509],[-43.354093,-22.864911],[-43.353878,-22.864943],[-43.353165,-22.865128],[-43.352846,-22.865165],[-43.352937,-22.865015],[-43.352744,-22.865055],[-43.352663,-22.865047],[-43.35248,-22.864874],[-43.35229,-22.864625],[-43.352735,-22.863943],[-43.352931,-22.863657],[-43.353051,-22.863494],[-43.353193,-22.863406],[-43.353446,-22.86332],[-43.353157,-22.862706],[-43.352298,-22.860914],[-43.351548,-22.85938],[-43.35196,-22.858824],[-43.352474,-22.858099],[-43.352612,-22.857899],[-43.353244,-22.857181],[-43.353332,-22.857155],[-43.353461,-22.857183],[-43.353737,-22.857186],[-43.353731,-22.856734],[-43.354567,-22.85659],[-43.355998,-22.856376],[-43.357463,-22.856151],[-43.358776,-22.855935],[-43.359906,-22.855738],[-43.361661,-22.855397]]]},"properties":{"nome":"Bento Ribeiro","codbairro":"089","regiao_adm":"MADUREIRA               "}},{"type":"Feature","geometry":{"type":"Polygon","coordinates":[[[-43.362846,-22.8552],[-43.362945,-22.854933],[-43.362704,-22.854492],[-43.361915,-22.85305],[-43.361179,-22.851749],[-43.360537,-22.850597],[-43.360304,-22.850316],[-43.359559,-22.8498],[-43.359111,-22.849487],[-43.358972,-22.849466],[-43.358833,-22.849425],[-43.358532,-22.849382],[-43.35835,-22.84937],[-43.358103,-22.849317],[-43.357953,-22.849356],[-43.357835,-22.849285],[-43.357697,-22.849184],[-43.357644,-22.849143],[-43.357926,-22.848917],[-43.358121,-22.84874],[-43.358327,-22.848583],[-43.358685,-22.848268],[-43.3604,-22.846782],[-43.360502,-22.84685],[-43.360541,-22.846992],[-43.360753,-22.84705],[-43.361138,-22.847054],[-43.361787,-22.847023],[-43.362507,-22.846927],[-43.362843,-22.846865],[-43.36321,-22.846843],[-43.363448,-22.84685],[-43.36364,-22.846904],[-43.363862,-22.846991],[-43.364003,-22.847067],[-43.3642,-22.847097],[-43.364397,-22.847189],[-43.364537,-22.847303],[-43.364688,-22.847389],[-43.364875,-22.847452],[-43.365178,-22.847525],[-43.365338,-22.847553],[-43.365464,-22.847575],[-43.365561,-22.847577],[-43.365618,-22.847584],[-43.365676,-22.847621],[-43.365735,-22.847654],[-43.365828,-22.847678],[-43.365916,-22.847682],[-43.366041,-22.847685],[-43.366153,-22.847693],[-43.366241,-22.847718],[-43.366327,-22.847736],[-43.366438,-22.847753],[-43.366585,-22.847759],[-43.366704,-22.847753],[-43.366827,-22.847743],[-43.366939,-22.847723],[-43.367056,-22.84769],[-43.367171,-22.847645],[-43.367381,-22.847548],[-43.367619,-22.847451],[-43.367921,-22.847492],[-43.368294,-22.847583],[-43.368667,-22.847789],[-43.369173,-22.848074],[-43.369634,-22.848274],[-43.370064,-22.84846],[-43.371005,-22.848854],[-43.371462,-22.849043],[-43.371585,-22.849128],[-43.371689,-22.8492],[-43.371959,-22.849309],[-43.372141,-22.8494],[-43.372394,-22.849503],[-43.372701,-22.849606],[-43.373013,-22.849781],[-43.373226,-22.849924],[-43.373396,-22.850075],[-43.373507,-22.850185],[-43.373618,-22.850282],[-43.373861,-22.850407],[-43.37409,-22.8505],[-43.374447,-22.85058],[-43.374774,-22.850643],[-43.375027,-22.850727],[-43.375216,-22.850779],[-43.375406,-22.850771],[-43.375569,-22.850732],[-43.375791,-22.850672],[-43.375959,-22.850615],[-43.376154,-22.850514],[-43.376534,-22.850343],[-43.376698,-22.850281],[-43.37693,-22.850227],[-43.377182,-22.850191],[-43.377382,-22.850189],[-43.377632,-22.850187],[-43.377945,-22.850199],[-43.378297,-22.850211],[-43.379065,-22.850232],[-43.378969,-22.850542],[-43.378822,-22.850921],[-43.378744,-22.851099],[-43.378651,-22.851222],[-43.378581,-22.851408],[-43.37847,-22.851585],[-43.378401,-22.851787],[-43.378365,-22.851973],[-43.378252,-22.852329],[-43.378191,-22.852499],[-43.378052,-22.852964],[-43.377957,-22.853188],[-43.377765,-22.853831],[-43.377704,-22.853963],[-43.377696,-22.853994],[-43.37813,-22.854138],[-43.379115,-22.854451],[-43.379683,-22.854636],[-43.380243,-22.854812],[-43.380886,-22.855013],[-43.381253,-22.855113],[-43.381795,-22.855149],[-43.382276,-22.855144],[-43.382612,-22.855093],[-43.382913,-22.855857],[-43.38415,-22.85545],[-43.384883,-22.855162],[-43.384848,-22.855255],[-43.384838,-22.855387],[-43.384852,-22.855651],[-43.384858,-22.8559],[-43.384822,-22.856055],[-43.384729,-22.856171],[-43.384627,-22.856286],[-43.384483,-22.856417],[-43.384338,-22.856571],[-43.384237,-22.856647],[-43.379797,-22.858467],[-43.379453,-22.858487],[-43.378935,-22.858396],[-43.377304,-22.858061],[-43.377161,-22.858067],[-43.376993,-22.858135],[-43.375424,-22.858888],[-43.374843,-22.859178],[-43.375016,-22.859413],[-43.374973,-22.859521],[-43.37498,-22.859606],[-43.3753,-22.860169],[-43.375571,-22.860646],[-43.375883,-22.861232],[-43.376244,-22.861896],[-43.376606,-22.86249],[-43.376869,-22.862935],[-43.377492,-22.864061],[-43.377763,-22.864576],[-43.378025,-22.86506],[-43.37819,-22.865342],[-43.378271,-22.865537],[-43.378309,-22.865871],[-43.378315,-22.866135],[-43.378294,-22.866431],[-43.378258,-22.866648],[-43.378202,-22.866796],[-43.378128,-22.866988],[-43.377933,-22.867219],[-43.37698,-22.868406],[-43.37635,-22.869215],[-43.376043,-22.869632],[-43.37588,-22.869918],[-43.375777,-22.870134],[-43.375657,-22.870374],[-43.375561,-22.870683],[-43.375482,-22.870978],[-43.375386,-22.871288],[-43.375308,-22.871489],[-43.375155,-22.871697],[-43.375018,-22.871882],[-43.374747,-22.872128],[-43.374493,-22.872358],[-43.374399,-22.87249],[-43.373479,-22.874648],[-43.373174,-22.875406],[-43.372993,-22.875808],[-43.372975,-22.875932],[-43.373041,-22.876011],[-43.373345,-22.876495],[-43.373402,-22.876667],[-43.373008,-22.876647],[-43.372664,-22.876644],[-43.37253,-22.876619],[-43.372355,-22.876602],[-43.372102,-22.876654],[-43.371817,-22.876721],[-43.371581,-22.876788],[-43.371363,-22.876817],[-43.370707,-22.876966],[-43.37048,-22.876994],[-43.370118,-22.877099],[-43.369986,-22.877166],[-43.369488,-22.877226],[-43.369311,-22.877249],[-43.369062,-22.877313],[-43.368976,-22.87729],[-43.368675,-22.877209],[-43.368541,-22.877192],[-43.368348,-22.87719],[-43.367934,-22.87721],[-43.367889,-22.877007],[-43.367807,-22.876136],[-43.367838,-22.875983],[-43.367989,-22.875578],[-43.368032,-22.875469],[-43.368456,-22.874376],[-43.368916,-22.873175],[-43.369771,-22.870951],[-43.369518,-22.870504],[-43.368854,-22.869555],[-43.369914,-22.869424],[-43.37002,-22.869335],[-43.370084,-22.869226],[-43.370092,-22.869103],[-43.370017,-22.868973],[-43.368343,-22.868105],[-43.366039,-22.866888],[-43.366278,-22.866077],[-43.366599,-22.864887],[-43.366781,-22.864244],[-43.366831,-22.864115],[-43.367377,-22.863824],[-43.367629,-22.863717],[-43.367624,-22.863601],[-43.367456,-22.863638],[-43.366504,-22.864105],[-43.366399,-22.864124],[-43.366358,-22.864072],[-43.366262,-22.863916],[-43.366236,-22.863793],[-43.366321,-22.863704],[-43.366267,-22.863568],[-43.365982,-22.862926],[-43.366066,-22.862888],[-43.364956,-22.860851],[-43.36424,-22.859547],[-43.363101,-22.857568],[-43.362284,-22.856089],[-43.361854,-22.855365],[-43.362846,-22.8552]]]},"properties":{"nome":"Marechal Hermes","codbairro":"090","regiao_adm":"MADUREIRA               "}}]}